IRIDIUM 7               
1 24793U 97020B   24191.11959233  .00000594  00000+0  20054-3 0  9994
2 24793  86.3976 320.6453 0002193 100.0045 260.1399 14.35282966422895
IRIDIUM 5               
1 24795U 97020D   24191.54055087  .00003267  00000+0  30870-3 0  9994
2 24795  86.3905 240.8549 0118485 283.0843  75.7180 14.88131260434426
IRIDIUM 4               
1 24796U 97020E   24191.11230462  .00000603  00000+0  20020-3 0  9997
2 24796  86.3971 317.7527 0002027  96.0046 264.1382 14.36209963423246
IRIDIUM 914             
1 24836U 97030A   24190.87571512  .00000703  00000+0  21666-3 0  9997
2 24836  86.3954 327.4687 0000371  89.3006 270.8236 14.40075518557701
IRIDIUM 16              
1 24841U 97030F   24190.88339975  .00000674  00000+0  21667-3 0  9997
2 24841  86.4049 349.4961 0004198 102.2153 257.9515 14.37963960417659
IRIDIUM 911             
1 24842U 97030G   24191.51081412  .00000874  00000+0  23658-3 0  9993
2 24842  86.4475 348.3393 0015212 152.6142 207.5866 14.46621049425508
IRIDIUM 17              
1 24870U 97034B   24190.93582450  .00000604  00000+0  19716-3 0  9992
2 24870  86.3958  19.0561 0003618  75.2637 284.8961 14.37055443414274
IRIDIUM 920             
1 24871U 97034C   24191.16625716  .00000598  00000+0  18076-3 0  9992
2 24871  86.3986 358.9910 0013223 127.4373 232.8031 14.40773392417435
